OBJECT_NAME,OBJECT_ID,EPOCH,MEAN_MOTION,ECCENTRICITY,INCLINATION,RA_OF_ASC_NODE,ARG_OF_PERICENTER,MEAN_ANOMALY,EPHEMERIS_TYPE,CLASSIFICATION_TYPE,NORAD_CAT_ID,ELEMENT_SET_NO,REV_AT_EPOCH,BSTAR,MEAN_MOTION_DOT,MEAN_MOTION_DDOT
ONEWEB-0395,2021-132G,2026-06-16T13:21:35.637408,13.11420416,.00020431,87.8889,21.1930,89.0524,271.0838,0,U,50475,999,21563,-.59896506E-3,-.2E-5,0
ONEWEB-0396,2021-132H,2026-06-16T11:37:27.824448,13.18685094,.0001919,87.9170,335.5943,87.6449,272.4903,0,U,50476,999,22154,.23601772E-3,.106E-5,0
ONEWEB-0397,2021-132J,2026-06-16T11:59:19.191552,13.18685510,.00018534,87.9170,335.5915,84.5894,275.5450,0,U,50477,999,22152,.6816248E-4,.4E-6,0
ONEWEB-0398,2021-132K,2026-06-16T14:25:04.587456,13.11414263,.00019521,87.8892,21.1746,94.4861,265.6490,0,U,50478,999,21553,.32158686E-3,.127E-5,0
ONEWEB-0399,2021-132L,2026-06-16T14:05:33.760320,13.11415889,.00021415,87.8894,21.1882,74.6873,285.4491,0,U,50479,999,21552,.15855409E-2,.575E-5,0
ONEWEB-0400,2021-132M,2026-06-16T11:27:45.514368,13.18686005,.0001925,87.9171,335.5854,97.9110,262.2241,0,U,50480,999,22151,.1586487E-3,.75E-6,0
ONEWEB-0401,2021-132N,2026-06-16T12:33:18.664416,13.18685401,.00016413,87.9172,335.5737,88.4009,271.7311,0,U,50481,999,22152,.6151175E-4,.37E-6,0
ONEWEB-0402,2021-132P,2026-06-16T11:39:54.418464,13.18686418,.00015243,87.9169,335.5702,80.1584,279.9721,0,U,50482,999,22154,.22620501E-3,.102E-5,0
ONEWEB-0403,2021-132Q,2026-06-16T12:16:18.893856,13.18685013,.00019868,87.9170,335.5897,90.7487,269.3873,0,U,50483,999,22150,.11091249E-3,.57E-6,0
ONEWEB-0404,2021-132R,2026-06-16T13:38:41.984736,13.11419449,.00021364,87.8891,21.1905,82.5823,277.5548,0,U,50484,999,21561,.72316698E-3,.269E-5,0
ONEWEB-0405,2021-132S,2026-06-16T12:35:44.754720,13.18687055,.00020217,87.9173,335.5716,105.3265,254.8091,0,U,50485,999,22190,.12583021E-3,.63E-6,0
ONEWEB-0406,2021-132T,2026-06-16T12:23:36.059712,13.18685313,.00023425,87.9165,335.5896,86.1586,273.9814,0,U,50486,999,22153,.10762748E-3,.55E-6,0
ONEWEB-0407,2021-132U,2026-06-16T12:13:54.503040,13.18683530,.0001578,87.9167,335.5831,90.3593,269.7720,0,U,50487,999,22147,.14824408E-2,.597E-5,0
ONEWEB-0409,2021-132V,2026-06-16T13:36:14.602752,13.11420329,.00021174,87.8894,21.1788,85.9466,274.1903,0,U,50488,999,21550,.59863589E-3,.225E-5,0
ONEWEB-0412,2021-132W,2026-06-16T11:56:53.255040,13.18685448,.00016383,87.9167,335.5939,85.2633,274.8686,0,U,50489,999,22156,.14324821E-3,.69E-6,0
ONEWEB-0413,2021-132X,2026-06-16T10:14:56.249088,13.18686137,.00015372,87.9158,335.6067,90.1287,270.0022,0,U,50490,999,22149,.1263642E-3,.63E-6,0
ONEWEB-0414,2021-132Y,2026-06-16T11:42:19.606752,13.18686115,.00018254,87.9171,335.5760,87.1913,272.9428,0,U,50491,999,22153,.30605682E-3,.134E-5,0
ONEWEB-0417,2021-132Z,2026-06-16T11:54:27.894816,13.18686122,.00020854,87.9161,335.5944,90.8118,269.3253,0,U,50492,999,22151,.15840606E-3,.75E-6,0
ONEWEB-0418,2021-132AA,2026-06-16T12:08:48.930432,13.18685243,.0002148,87.9170,335.5921,91.4981,268.6397,0,U,50493,999,22157,.15042379E-3,.72E-6,0
ONEWEB-0419,2021-132AB,2026-06-16T12:35:36.071520,13.18665803,.00021147,87.9171,335.5879,97.2278,262.9095,0,U,50494,999,22149,-.16335786E-4,.6E-7,0
ONEWEB-0420,2021-132AC,2026-06-16T11:44:44.894400,13.18686368,.0001675,87.9160,335.5979,96.0183,264.1140,0,U,50495,999,22148,.25850696E-3,.115E-5,0
ONEWEB-0421,2021-132AD,2026-06-16T11:35:02.282784,13.18684845,.00017729,87.9167,335.5967,80.7087,279.4245,0,U,50496,999,22152,.18418809E-3,.86E-6,0
ONEWEB-0424,2021-132AE,2026-06-16T12:28:27.516288,13.18685159,.00020787,87.9170,335.5874,100.9415,259.1951,0,U,50497,999,22155,.47203799E-4,.32E-6,0
ONEWEB-0426,2021-132AF,2026-06-16T11:28:57.060480,13.18689108,.00022787,87.9169,335.5866,76.9357,283.2030,0,U,50498,999,22149,.1729061E-4,.2E-6,0
ONEWEB-0427,2021-132AG,2026-06-16T10:36:46.130976,13.18685164,.00020358,87.9172,335.5828,89.7301,270.4064,0,U,50499,999,22151,.12997956E-3,.64E-6,0
ONEWEB-0429,2021-132AH,2026-06-16T12:06:36.347904,13.18685724,.00017258,87.9162,335.5946,92.9546,267.1784,0,U,50500,999,22149,-.23234348E-4,.4E-7,0
ONEWEB-0430,2021-132AJ,2026-06-16T11:49:36.202368,13.18686673,.00018174,87.9162,335.5955,101.1255,259.0082,0,U,50501,999,22153,.23387083E-3,.105E-5,0
ONEWEB-0432,2021-132AK,2026-06-16T11:01:28.348896,13.17155171,.00021628,87.9169,335.5796,108.6867,251.4499,0,U,50502,999,22148,.24964442E-3,.109E-5,0
ONEWEB-0440,2021-132AL,2026-06-16T12:18:44.527968,13.18685357,.00015667,87.9171,335.5875,86.3208,273.8103,0,U,50503,999,22148,-.39516137E-4,-.3E-7,0
ONEWEB-0450,2021-132AM,2026-06-16T12:09:14.214528,13.18686292,.00016888,87.9160,335.5941,96.9355,263.1970,0,U,50504,999,22151,.11697509E-3,.59E-6,0
